#dP2023 12 24  0  0  0.00000000      96 __u+U IGS20 FIT  IAC
## 2294      0.00000000   900.00000000 60302 0.0000000000000
+  120   C06C07C08C09C10C11C12C13C14C16C19C20C21C22C23C24C25
+        C26C27C28C29C30C32C33C34C35C36C37C38C39C40C41C42C43
+        C44C45C46E02E03E04E05E07E08E09E10E11E12E13E14E15E18
+        E19E21E24E25E26E27E30E31E33E34E36G01G02G03G04G05G06
+        G07G08G09G10G11G12G13G14G15G16G17G18G19G20G21G22G23
+        G24G25G26G27G28G29G30G31G32J02J03J04R01R02R03R04R05
+        R07R08R09R11R12R13R14R15R16R17R18R19R20R21R22R24R25
+        R26  0  0  0  0  0  0  0  0  0  0  0  0  0  0  0  0
++         8  7  9  7  8  8  8  9  6  9  6  6  7  7  5  7  6
++         6  6  5  7  8  9  6  6  6  7  6  0  8  7  7  7  8
++         6  6  7  6  7  6  6  6  7  6  6  6  5  6  5  6  6
++         7  6  5  6  6  6  6  6  5  7  5  6  6  6  6  6  5
++         6  5  5  6  6  5  6  5  6  5  6  5  4  7  6  5  6
++         6  6  5  6  5  7  6  6  6  7  7  8  6  7  6  6  6
++         6  6  6  5  7  5  6  6  7  7  7  7  7  7  7  6  7
++        10  0  0  0  0  0  0  0  0  0  0  0  0  0  0  0  0
%c M  cc GPS ccc cccc cccc cccc cccc ccccc ccccc ccccc ccccc
%c cc cc ccc ccc cccc cccc cccc cccc ccccc ccccc ccccc ccccc
%f  0.0000000  0.000000000  0.00000000000  0.000000000000000
%f  0.0000000  0.000000000  0.00000000000  0.000000000000000
%i    0    0    0    0      0      0      0      0         0
%i    0    0    0    0      0      0      0      0         0
/* INFORMATION & ANALYSIS CENTER (IAC)      ULTRA-RAPID DATA
/* S/V CLOCKS ARE ALIGNED TO GNSS TIME                      
/* G:C1WC2W R:C1PC2P E:C1XC5X C:C2IC6I J:C1CC2S             
/* PCV:IGS20_2290 OL/AL:FES2004  NONE     YN ORB:CoN CLK:CoN
*  2023 12 24  9  0  0.00000000
PC06 -17075.157765  37339.857604   8914.170729    224.556006
PC07  -1341.150309  34683.908332  24151.971444   -524.818963
PC08 -10312.556268  19589.534651 -35919.957864    160.227372
PC09  -8817.701959  36047.241561  19836.670057   -259.040829
PC10   5110.836767  37226.131824  19977.937762    -65.540691
PC11 -12546.855819  23919.463294   7117.531142    322.348566
PC12 -16875.976389   7668.842021  20907.407925    816.513338
PC13  -3895.590473  21624.739731 -35844.806676    399.469937
PC14  -7102.496334  14706.836761 -22623.150479   -182.695016
PC16 -17752.397279  37250.410800   8050.017033   -242.991779
PC19  -1868.970438 -20306.103796  19064.342012   -947.586871
PC20  13721.879272  -8119.492493  22912.887445      0.209351
PC21 -22389.788945 -10143.020344 -13184.203276   -966.303979
PC22 -17284.340684 -21531.721041   3973.994804   -174.538173
PC23  10828.382918  13532.740630  21864.418614   -799.308507
PC24 -25011.705543  10879.677104   5952.019703    722.679698
PC25  -8844.493170  17420.027181  19919.566908    285.383508
PC26 -25806.098696   -698.055180 -10665.802186   -224.687267
PC27  15955.804170   2205.940463 -22802.986015    246.693354
PC28   7855.995114  19379.411691 -18469.876110    186.802633
PC29   5610.528473 -27295.312216   1524.026682    218.742501
PC30  15526.827909 -17143.519513 -15631.729263    -11.346004
PC32  22503.198729  10048.089020  13110.972082   -545.844144
PC33   1917.118466  20274.057110 -19083.442024   -941.788069
PC34 -15105.857781  18420.199470  14510.285341    331.773810
PC35  -8637.937646 -19106.203140  18424.778999    473.524468
PC36  10019.971258 -17160.189103 -19574.682322    -80.382773
PC37  25505.710262   1708.361011  11161.163752   -931.540771
PC38      0.000000      0.000000      0.000000 999999.999999
PC39 -19659.163943  37128.616359   1406.184251     -6.276481
PC40  -4837.803848  31367.634071  27919.077857    -49.121628
PC41  16933.540940  21675.685999  -4675.555742   -875.058292
PC42 -14861.046548   6775.515454 -22583.741734   -475.959421
PC43  -6235.302540  27181.039720   -646.385843     53.573952
PC44 -16104.842791  -1883.666893  22700.830318    332.401626
PC45 -11280.202499 -13234.914531 -21840.880611    -57.544448
PC46  24476.353195 -11379.262303  -7005.730601   -110.007303
PE02 -28366.039801  -4605.666534   7136.218854     89.222834
PE03 -17482.581814  -2602.036031 -23750.186891    -82.244434
PE04  10645.559129 -18820.972618  20217.894567   -287.320952
PE05 -14088.256841 -22297.364388 -13440.532678   4703.531747
PE07   2133.608639  29062.320121  -5208.973563    -94.696228
PE08 -10857.864268  18248.541220 -20628.974266   -197.055199
PE09  -2094.733413 -29031.589144   5353.286243   -274.225504
PE10  15810.535512 -22801.694414  10304.122094   -588.753879
PE11   6633.332349 -21942.428882  18732.392456   3274.552367
PE12  21689.647661 -20116.782842   1261.035346   -832.350835
PE13  -7317.621619  22087.166213 -18282.634056    -19.747492
PE14   6210.950592 -22398.481416 -11163.070538     -9.420760
PE15 -21910.187323  19886.437920   -704.549539    -76.379115
PE18   4253.290422  31098.335843   -210.116806    130.511938
PE19  17472.163571   5423.367463  23270.444039   -952.546622
PE21  22744.771064  15596.171675  10736.656040   -570.396462
PE24  -3031.843684 -18080.085574 -23264.603936   -503.201815
PE25 -22488.206842 -15753.486316 -11073.556821     -1.521050
PE26  11993.884435  10934.421388 -24740.778758    318.809870
PE27   3587.405568  18081.696472  23153.518392   -231.911116
PE30 -17769.812532   9670.940636  21600.320763   -767.381407
PE31  17434.265515  -9888.728806 -21776.302963    -12.327552
PE33  23266.216550  -5570.172431 -17415.697465      4.751103
PE34 -23446.498669   6123.910826  17007.846271    -85.091446
PE36 -11315.742747 -11349.750739  24895.725816   -162.056298
PG01 -10470.479353  20441.178277 -13390.893369    164.495879
PG02 -14955.827074  21004.641059  -5358.304469   -511.106357
PG03  -4832.701319  13995.890290 -22192.783325     77.171440
PG04  -2228.706266  24772.241079  -9115.197139    247.785100
PG05  17261.374215  -8191.107350  18314.125271   -155.310478
PG06  19605.963906  -1471.676923 -17831.018534    468.161800
PG07   4884.800990  15860.806423  21128.174189    -19.800994
PG08  -7095.007287  19563.211128  16172.455256   -158.563286
PG09   7230.181425  25446.140019   1915.223063     36.552982
PG10 -23920.177350 -11141.968692   4515.880028    -66.554882
PG11  22735.250083 -10123.949141  -9180.034055   -513.142097
PG12   6226.817883 -13958.025140 -22004.559101   -460.686660
PG13  13279.630271 -10312.397586  20302.755824    608.848336
PG14  21701.198267  13585.901905   7431.484297    279.503394
PG15   4916.897334 -20379.684350  15692.967250    110.095755
PG16 -22222.689419   1348.016077  14497.704551   -398.132431
PG17  12429.881262  18215.497717 -14265.981212    721.411622
PG18  -5427.685139 -14581.648172  21514.882398   -514.445491
PG19  14777.360141   9701.024037 -20120.174680    416.814629
PG20  25186.224809  -1961.951201   7959.100692    395.070098
PG21 -17045.862139  19581.820429  -1485.166287    140.603536
PG22  24049.598490  10889.992122    489.004579     60.498137
PG23 -15543.274860 -15405.072787  15200.916253    121.883641
PG24  14055.013218 -21552.648254  -6023.763980   -399.903066
PG25  -7307.972112 -16921.387112 -19550.178247    482.686684
PG26 -26052.237402  -2382.456475   5460.016888    206.607974
PG27 -13871.078368   6293.799607  21457.285071    -86.820315
PG28 -18319.722103  -1128.878581 -19218.728416    -78.559690
PG29  -4196.009816 -26137.569582   1277.961531   -609.494406
PG30  14382.998433   8000.260584  21006.695144   -453.822277
PG31 -22296.911424   6310.669179 -13547.636135   -226.838123
PG32 -14908.188095 -14416.418699 -16521.808511   -599.221428
PJ02 -28571.008082  21040.495756  27870.879544     -0.732490
PJ03 -32245.502082  26947.011750   7883.474489    -13.302807
PJ04 -21327.501871  23496.348056 -22689.900268     74.942736
PR01  17303.569550  14012.959124  12451.569724     72.879547
PR02  11682.957483  -1492.822555  22659.550174    -22.348023
PR03    -73.018983 -16507.250798  19515.578343     91.512593
PR04 -11376.585758 -22091.563925   5836.556743    216.682550
PR05 -16597.736347 -15941.444729 -11026.318702    124.304400
PR07    676.550774  16970.654102 -18970.443366     72.038385
PR08  11670.521193  21971.669299  -5482.557390    -73.790646
PR09 -24014.515510   5603.242890   6379.785894    160.471427
PR11   5828.682611  10284.898043  22610.438664   -223.175452
PR12  22552.698628   3722.354688  11321.751451     34.823798
PR13  24817.611386  -4184.002332  -4152.379174    -42.591802
PR14  11827.135671 -10694.925896 -19909.660700     25.823991
PR15  -7304.412671 -10168.523783 -22211.077315     83.697500
PR16 -22407.547238  -3644.062245 -11597.857961     21.837156
PR17  10970.240855 -22992.271195    812.927436     46.237293
PR18   1876.542726 -19723.404650  16119.820949    118.471136
PR19  -7281.181331  -8116.993404  23066.772585   -259.454592
PR20 -15113.215218  12260.710269  16482.320068   -105.671160
PR21 -10958.844570  23012.115666  -1301.809010    -63.424187
PR22  -1517.660774  19210.654509 -16673.649538     99.787062
PR24  14936.856953 -13243.438169 -15846.276438    -37.155297
PR25 -11928.772644  22543.829241   -831.978834      5.133110
PR26  11395.739280  21946.180755  -6277.660715 999999.999999
EOF
